$$SOE
2460721.500000000, A.D. 2025-Feb-15 00:00:00.0000, 1.531460975643191E+06, -3.734516527874452E+08, -2.901799490461051E+05,
2460728.500000000, A.D. 2025-Feb-22 00:00:00.0000, 1.334110924439524E+07, -3.729684972555169E+08, 5.217282333853841E+04,
2460735.500000000, A.D. 2025-Mar-01 00:00:00.0000, 2.513829918577715E+07, -3.721371226419011E+08, 3.944768270934522E+05,
2460742.500000000, A.D. 2025-Mar-08 00:00:00.0000, 3.691197609861936E+07, -3.709576852865899E+08, 7.364114456893504E+05,
2460749.500000000, A.D. 2025-Mar-15 00:00:00.0000, 4.865107632694698E+07, -3.694307414334946E+08, 1.077655417339876E+06,
2460756.500000000, A.D. 2025-Mar-22 00:00:00.0000, 6.034454257558617E+07, -3.675572482064282E+08, 1.417887585948527E+06,
2460763.500000000, A.D. 2025-Mar-29 00:00:00.0000, 7.198134072183508E+07, -3.653385658840697E+08, 1.756787347551629E+06,
2460770.500000000, A.D. 2025-Apr-05 00:00:00.0000, 8.355047838636358E+07, -3.627764583258611E+08, 2.094035016792580E+06,
2460777.500000000, A.D. 2025-Apr-12 00:00:00.0000, 9.504102327328162E+07, -3.598730914398563E+08, 2.429312296552047E+06,
2460784.500000000, A.D. 2025-Apr-19 00:00:00.0000, 1.064421210274523E+08, -3.566310305729111E+08, 2.762302793808684E+06,
2460791.500000000, A.D. 2025-Apr-26 00:00:00.0000, 1.177430128160012E+08, -3.530532370302665E+08, 3.092692538159654E+06,
2460798.500000000, A.D. 2025-May-03 00:00:00.0000, 1.289330526831603E+08, -3.491430637144376E+08, 3.420170492103845E+06,
2460805.500000000, A.D. 2025-May-10 00:00:00.0000, 1.400017246432441E+08, -3.449042498884845E+08, 3.744429049103603E+06,
2460812.500000000, A.D. 2025-May-17 00:00:00.0000, 1.509386594865495E+08, -3.403409151234333E+08, 4.065164510671273E+06,
2460819.500000000, A.D. 2025-May-24 00:00:00.0000, 1.617336514121268E+08, -3.354575525093091E+08, 4.382077520376876E+06,
2460826.500000000, A.D. 2025-May-31 00:00:00.0000, 1.723766748456720E+08, -3.302590208495970E+08, 4.694873440549269E+06,
2460833.500000000, A.D. 2025-Jun-07 00:00:00.0000, 1.828579009820280E+08, -3.247505346677010E+08, 5.003262805504218E+06,
2460840.500000000, A.D. 2025-Jun-14 00:00:00.0000, 1.931677116305026E+08, -3.189376527249820E+08, 5.306962011697173E+06,
2460847.500000000, A.D. 2025-Jun-21 00:00:00.0000, 2.032967115294571E+08, -3.128262683549192E+08, 5.605693863390014E+06,
2460854.500000000, A.D. 2025-Jun-28 00:00:00.0000, 2.132357422175581E+08, -3.064225998896016E+08, 5.899187829126090E+06,
2460861.500000000, A.D. 2025-Jul-05 00:00:00.0000, 2.229758959094507E+08, -2.997331790737508E+08, 6.187180323371634E+06,
2460868.500000000, A.D. 2025-Jul-12 00:00:00.0000, 2.325085281500508E+08, -2.927648383289535E+08, 6.469415056332916E+06,
2460875.500000000, A.D. 2025-Jul-19 00:00:00.0000, 2.418252694028795E+08, -2.855246975014992E+08, 6.745643387226313E+06,
2460882.500000000, A.D. 2025-Jul-26 00:00:00.0000, 2.509180357506636E+08, -2.780201502079749E+08, 7.015624656663984E+06,
2460889.500000000, A.D. 2025-Aug-02 00:00:00.0000, 2.597790387457011E+08, -2.702588498136598E+08, 7.279126493334785E+06,
2460896.500000000, A.D. 2025-Aug-09 00:00:00.0000, 2.684007944098946E+08, -2.622486951140875E+08, 7.535925090915114E+06,
2460903.500000000, A.D. 2025-Aug-16 00:00:00.0000, 2.767761314430594E+08, -2.539978158372292E+08, 7.785805442137808E+06,
2460910.500000000, A.D. 2025-Aug-23 00:00:00.0000, 2.848981989212557E+08, -2.455145580032544E+08, 8.028561503909484E+06,
2460917.500000000, A.D. 2025-Aug-30 00:00:00.0000, 2.927604738118560E+08, -2.368074684838008E+08, 8.263996321792841E+06,
2460924.500000000, A.D. 2025-Sep-06 00:00:00.0000, 3.003567668903417E+08, -2.278852778205283E+08, 8.491922326360434E+06,
2460931.500000000, A.D. 2025-Sep-13 00:00:00.0000, 3.076812253920648E+08, -2.187568838455322E+08, 8.712161752144858E+06,
2460938.500000000, A.D. 2025-Sep-20 00:00:00.0000, 3.147283356782575E+08, -2.094313378033955E+08, 8.924546744633377E+06,
2460945.500000000, A.D. 2025-Sep-27 00:00:00.0000, 3.214929269866838E+08, -1.999178299170882E+08, 9.128919312936023E+06,
2460952.500000000, A.D. 2025-Oct-04 00:00:00.0000, 3.279701742664281E+08, -1.902256739121170E+08, 9.325131357938476E+06,
2460959.500000000, A.D. 2025-Oct-11 00:00:00.0000, 3.341555997417141E+08, -1.803642914931099E+08, 9.513044733871967E+06,
2460966.500000000, A.D. 2025-Oct-18 00:00:00.0000, 3.400450735096405E+08, -1.703431970950264E+08, 9.692531295505583E+06,
2460973.500000000, A.D. 2025-Oct-25 00:00:00.0000, 3.456348133356910E+08, -1.601719829425547E+08, 9.863472919711910E+06,
2460980.500000000, A.D. 2025-Nov-01 00:00:00.0000, 3.509213837137393E+08, -1.498603044439268E+08, 1.002576149973898E+07,
2460987.500000000, A.D. 2025-Nov-08 00:00:00.0000, 3.559016942546096E+08, -1.394178659896502E+08, 1.017929890711140E+07,
2460994.500000000, A.D. 2025-Nov-15 00:00:00.0000, 3.605729975813897E+08, -1.288544072506095E+08, 1.032399690326903E+07,
2461001.500000000, A.D. 2025-Nov-22 00:00:00.0000, 3.649328871654039E+08, -1.181796897864265E+08, 1.045977698233210E+07,
2461008.500000000, A.D. 2025-Nov-29 00:00:00.0000, 3.689792949854496E+08, -1.074034828559099E+08, 1.058657025272749E+07,
2461015.500000000, A.D. 2025-Dec-06 00:00:00.0000, 3.727104867733144E+08, -9.653554859290373E+07, 1.070431755696255E+07,
2461022.500000000, A.D. 2025-Dec-13 00:00:00.0000, 3.761250553165608E+08, -8.558562994401190E+07, 1.081296951521542E+07,
2461029.500000000, A.D. 2025-Dec-20 00:00:00.0000, 3.792219153458233E+08, -7.456344036444813E+07, 1.091248625637228E+07,
2461036.500000000, A.D. 2025-Dec-27 00:00:00.0000, 3.820002989698215E+08, -6.347865269562650E+07, 1.100283714768828E+07,
2461043.500000000, A.D. 2026-Jan-03 00:00:00.0000, 3.844597502378739E+08, -5.234088785317551E+07, 1.108400060784072E+07,
2461050.500000000, A.D. 2026-Jan-10 00:00:00.0000, 3.866001189782314E+08, -4.115970401482388E+07, 1.115596393905301E+07,
2461057.500000000, A.D. 2026-Jan-17 00:00:00.0000, 3.884215541826960E+08, -2.994458640715235E+07, 1.121872315069485E+07,
2461064.500000000, A.D. 2026-Jan-24 00:00:00.0000, 3.899244970529898E+08, -1.870493767305899E+07, 1.127228277033303E+07,
2461071.500000000, A.D. 2026-Jan-31 00:00:00.0000, 3.911096737696050E+08, -7.450068829403888E+06, 1.131665564080362E+07,
2461078.500000000, A.D. 2026-Feb-07 00:00:00.0000, 3.919780880814043E+08, 3.810809127390685E+06, 1.135186269430103E+07,
2461085.500000000, A.D. 2026-Feb-14 00:00:00.0000, 3.925310140035961E+08, 1.506859295272490E+07, 1.137793268005387E+07,
2461092.500000000, A.D. 2026-Feb-21 00:00:00.0000, 3.927699890412366E+08, 2.631429480125134E+07, 1.139490185771778E+07,
2461099.500000000, A.D. 2026-Feb-28 00:00:00.0000, 3.926968068806497E+08, 3.753905095070936E+07, 1.140281385090721E+07,
2461106.500000000, A.D. 2026-Mar-07 00:00:00.0000, 3.923135075206380E+08, 4.873412966099206E+07, 1.140171969140598E+07,
2461113.500000000, A.D. 2026-Mar-14 00:00:00.0000, 3.916223676466512E+08, 5.989093584404524E+07, 1.139167760928438E+07,
2461120.500000000, A.D. 2026-Mar-21 00:00:00.0000, 3.906258930543950E+08, 7.100101545549938E+07, 1.137275264272164E+07,
2461127.500000000, A.D. 2026-Mar-28 00:00:00.0000, 3.893268111407107E+08, 8.205606065222487E+07, 1.134501633729675E+07,
2461134.500000000, A.D. 2026-Apr-04 00:00:00.0000, 3.877280628868890E+08, 9.304791476399358E+07, 1.130854651281587E+07,
2461141.500000000, A.D. 2026-Apr-11 00:00:00.0000, 3.858327946343998E+08, 1.039685767317133E+08, 1.126342704438815E+07,
2461148.500000000, A.D. 2026-Apr-18 00:00:00.0000, 3.836443498345215E+08, 1.148102050182606E+08, 1.120974764345188E+07,
2461155.500000000, A.D. 2026-Apr-25 00:00:00.0000, 3.811662608368738E+08, 1.255651210206397E+08, 1.114760363639039E+07,
2461162.500000000, A.D. 2026-May-02 00:00:00.0000, 3.784022407648718E+08, 1.362258119692990E+08, 1.107709573608261E+07,
2461169.500000000, A.D. 2026-May-09 00:00:00.0000, 3.753561756190881E+08, 1.467849332647696E+08, 1.099832979012104E+07,
2461176.500000000, A.D. 2026-May-16 00:00:00.0000, 3.720321170017456E+08, 1.572353104059698E+08, 1.091141648273555E+07,
2461183.500000000, A.D. 2026-May-23 00:00:00.0000, 3.684342755255916E+08, 1.675699415476392E+08, 1.081647106927072E+07,
2461190.500000000, A.D. 2026-May-30 00:00:00.0000, 3.645670128371781E+08, 1.777820010246560E+08, 1.071361336036345E+07,
2461197.500000000, A.D. 2026-Jun-06 00:00:00.0000, 3.604348319508389E+08, 1.878648405901316E+08, 1.060296771829139E+07,
2461204.500000000, A.D. 2026-Jun-13 00:00:00.0000, 3.560423695719998E+08, 1.978119885817566E+08, 1.048466274553046E+07,
2461211.500000000, A.D. 2026-Jun-20 00:00:00.0000, 3.513943899146780E+08, 2.076171499572908E+08, 1.035883095025383E+07,
2461218.500000000, A.D. 2026-Jun-27 00:00:00.0000, 3.464957783201029E+08, 2.172742068762378E+08, 1.022560851674956E+07,
2461225.500000000, A.D. 2026-Jul-04 00:00:00.0000, 3.413515346821505E+08, 2.267772190697036E+08, 1.008513511743987E+07,
2461232.500000000, A.D. 2026-Jul-11 00:00:00.0000, 3.359667669384493E+08, 2.361204238827873E+08, 9.937553732352868E+06,
2461239.500000000, A.D. 2026-Jul-18 00:00:00.0000, 3.303466847236668E+08, 2.452982360310429E+08, 9.783010469524428E+06,
2461246.500000000, A.D. 2026-Jul-25 00:00:00.0000, 3.244965932122128E+08, 2.543052470891883E+08, 9.621654384204954E+06,
2461253.500000000, A.D. 2026-Aug-01 00:00:00.0000, 3.184218872004424E+08, 2.631362246791642E+08, 9.453637288456231E+06,
2461260.500000000, A.D. 2026-Aug-08 00:00:00.0000, 3.121280456448755E+08, 2.717861113367494E+08, 9.279113528469041E+06,
2461267.500000000, A.D. 2026-Aug-15 00:00:00.0000, 3.056206270730991E+08, 2.802500235211740E+08, 9.098239728207394E+06,
2461274.500000000, A.D. 2026-Aug-22 00:00:00.0000, 2.989052651054547E+08, 2.885232520001855E+08, 8.911174668625832E+06,
2461281.500000000, A.D. 2026-Aug-29 00:00:00.0000, 2.919876617936758E+08, 2.966012622502540E+08, 8.718079400310174E+06,
2461288.500000000, A.D. 2026-Sep-05 00:00:00.0000, 2.848735809097634E+08, 3.044796920205097E+08, 8.519117159946829E+06,
$$EOE